[{"OBJECT_NAME":"STARLINK-35709","OBJECT_ID":"2025-244L","EPOCH":"2026-03-09T17:32:57.817536","MEAN_MOTION":15.30208054,"ECCENTRICITY":8.707e-5,"INCLINATION":53.1574,"RA_OF_ASC_NODE":229.8782,"ARG_OF_PERICENTER":74.3362,"MEAN_ANOMALY":285.7735,"EPHEMERIS_TYPE":0,"CLASSIFICATION_TYPE":"U","NORAD_CAT_ID":66216,"ELEMENT_SET_NO":999,"REV_AT_EPOCH":2166,"BSTAR":0.0010666771,"MEAN_MOTION_DOT":0.00031374,"MEAN_MOTION_DDOT":0},{"OBJECT_NAME":"SPACEMOBILE-001 DEB","OBJECT_ID":"2024-163F","EPOCH":"2026-03-09T07:17:56.452704","MEAN_MOTION":15.32884299,"ECCENTRICITY":0.00071876,"INCLINATION":52.9956,"RA_OF_ASC_NODE":27.518,"ARG_OF_PERICENTER":196.7865,"MEAN_ANOMALY":163.2898,"EPHEMERIS_TYPE":0,"CLASSIFICATION_TYPE":"U","NORAD_CAT_ID":62369,"ELEMENT_SET_NO":999,"REV_AT_EPOCH":7117,"BSTAR":0.00044817004,"MEAN_MOTION_DOT":0.00014099,"MEAN_MOTION_DDOT":0}]
